ONEWEB-0229             
1 48779U 21045N   24136.28277943  .00000042  00000+0  77299-4 0  9998
2 48779  87.9052  51.0194 0001847  85.8226 274.3115 13.15546248144101
ONEWEB-0228             
1 48780U 21045P   24136.29784981  .00000178  00000+0  43971-3 0  9995
2 48780  87.9050  50.9925 0001867  83.1617 276.9725 13.15547442144021
ONEWEB-0232             
1 48781U 21045Q   24136.82314253  .00000162  00000+0  39669-3 0  9998
2 48781  87.9046  50.9111 0001879  84.5434 275.5910 13.15550420145537
ONEWEB-0231             
1 48782U 21045R   24136.26852658  .00000058  00000+0  11913-3 0  9999
2 48782  87.9060  51.0459 0001978  88.8996 271.2361 13.15546850144030
ONEWEB-0234             
1 48783U 21045S   24136.82071571  .00003519  00000+0  93044-2 0  9998
2 48783  87.9057  50.8979 0003167  75.1703 284.9778 13.15578002145373
ONEWEB-0238             
1 48784U 21045T   24136.31844286 -.00000027  00000+0 -10631-3 0  9999
2 48784  87.9055  51.0158 0001993  75.4424 284.6927 13.15547247144078
ONEWEB-0240             
1 48785U 21045U   24136.78430481 -.00000040  00000+0 -13981-3 0  9995
2 48785  87.9055  50.8904 0002286  87.2960 272.8432 13.15548446145283
ONEWEB-0246             
1 48786U 21045V   24136.77874817  .00000154  00000+0  37609-3 0  9997
2 48786  87.9058  50.8961 0002038  83.0199 277.1163 13.15546941145156
